*******************************************************************************
Ephemeris / WWW_USER Mon Mar 24 07:45:56 2025 Pasadena, USA      / Horizons    
*******************************************************************************
Target body name: (2018 TC)                       {source: JPL#10}
Center body name: Earth (399)                     {source: DE441}
Center-site name: Mauna Kea
*******************************************************************************
Start time      : A.D. 2018-Sep-14 04:35:00.0000 UT      
Stop  time      : A.D. 2018-Sep-14 16:00:00.0000 UT      
Step-size       : 1 minutes
*******************************************************************************
Target pole/equ : undefined
Target radii    : undefined                                                    
Center geodetic : 204.5278, 19.8260847, 4.21024   {E-lon(deg),Lat(deg),Alt(km)}
Center cylindric: 204.5278, 6006.35451, 2151.0229 {E-lon(deg),Dxy(km),Dz(km)}
Center pole/equ : ITRF93                          {East-longitude positive}
Center radii    : 6378.137, 6378.137, 6356.752 km {Equator_a, b, pole_c}       
Target primary  : Sun
Vis. interferer : MOON (R_eq= 1737.400) km        {source: DE441}
Rel. light bend : Sun                             {source: DE441}
Rel. lght bnd GM: 1.3271E+11 km^3/s^2                                          
Small-body perts: Yes                             {source: SB441-N16}
Atmos refraction: NO (AIRLESS)
RA format       : HMS
Time format     : CAL 
Calendar mode   : Mixed Julian/Gregorian
RTS-only print  : NO       
EOP file        : eop.250321.p250617                                           
EOP coverage    : DATA-BASED 1962-JAN-20 TO 2025-MAR-21. PREDICTS-> 2025-JUN-16
Units conversion: 1 au= 149597870.700 km, c= 299792.458 km/s, 1 day= 86400.0 s 
Table cut-offs 1: Elevation (-90.0deg=NO ),Airmass (>38.000=NO), Daylight (YES)
Table cut-offs 2: Solar elongation (  0.0,180.0=NO ),Local Hour Angle( 0.0=NO )
Table cut-offs 3: RA/DEC angular rate (     0.0=NO )                           
*******************************************************************************
Initial IAU76/J2000 heliocentric ecliptic osculating elements (au, days, deg.):
  EPOCH=  2458399.5 ! 2018-Oct-08.00 (TDB)         Residual RMS= .20211        
   EC= .2253304451868516   QR= .9525668516843322   TP= 2458354.2554697809      
   OM= 188.9146441926015   W=  135.2493409557404   IN= 3.631837316097226       
  Equivalent ICRF heliocentric cartesian coordinates (au, au/d):
   X= 9.874490534016482E-01  Y= 2.414303737329446E-01  Z= 9.746991415829437E-02
  VX=-1.955204385424240E-03 VY= 1.722364762632024E-02 VZ= 6.197883797821973E-03
Asteroid physical parameters (km, seconds, rotational period in hours):        
   GM= n.a.                RAD= n.a.               ROTPER= n.a.                
   H= 26.6                 G= .150                 B-V= n.a.                   
                           ALBEDO= n.a.            STYP= n.a.                  
*******************************************************************************
 Date__(UT)__HR:MN     R.A._________(ICRF)_________DEC
******************************************************
$$SOE
 2018-Sep-14 06:38  m  14 20 42.623191 +05 20 17.63172
 2018-Sep-14 06:39  m  14 20 42.656989 +05 20 17.82889
 2018-Sep-14 06:40  m  14 20 42.690977 +05 20 18.02603
 2018-Sep-14 06:41  m  14 20 42.725157 +05 20 18.22315
 2018-Sep-14 06:42  m  14 20 42.759528 +05 20 18.42025
 2018-Sep-14 06:43  m  14 20 42.794090 +05 20 18.61733
 2018-Sep-14 06:44  m  14 20 42.828844 +05 20 18.81439
 2018-Sep-14 06:45  m  14 20 42.863790 +05 20 19.01143
 2018-Sep-14 06:46  m  14 20 42.898928 +05 20 19.20846
 2018-Sep-14 06:47  m  14 20 42.934258 +05 20 19.40547
 2018-Sep-14 06:48  m  14 20 42.969780 +05 20 19.60247
 2018-Sep-14 06:49  m  14 20 43.005494 +05 20 19.79945
 2018-Sep-14 06:50  m  14 20 43.041401 +05 20 19.99642
 2018-Sep-14 06:51  m  14 20 43.077500 +05 20 20.19337
 2018-Sep-14 06:52  m  14 20 43.113792 +05 20 20.39032
 2018-Sep-14 06:53  m  14 20 43.150276 +05 20 20.58726
 2018-Sep-14 06:54  m  14 20 43.186953 +05 20 20.78420
 2018-Sep-14 06:55  m  14 20 43.223823 +05 20 20.98112
 2018-Sep-14 06:56  m  14 20 43.260885 +05 20 21.17804
 2018-Sep-14 06:57  m  14 20 43.298141 +05 20 21.37496
 2018-Sep-14 06:58  m  14 20 43.335589 +05 20 21.57187
 2018-Sep-14 06:59  m  14 20 43.373231 +05 20 21.76878
 2018-Sep-14 07:00  m  14 20 43.411066 +05 20 21.96569
 2018-Sep-14 07:01  m  14 20 43.449094 +05 20 22.16260
 2018-Sep-14 07:02  m  14 20 43.487316 +05 20 22.35951
 2018-Sep-14 07:03  m  14 20 43.525731 +05 20 22.55643
 2018-Sep-14 07:04  m  14 20 43.564339 +05 20 22.75335
 2018-Sep-14 07:05  m  14 20 43.603141 +05 20 22.95027
 2018-Sep-14 07:06  m  14 20 43.642136 +05 20 23.14720
 2018-Sep-14 07:07  m  14 20 43.681325 +05 20 23.34414
 2018-Sep-14 07:08  m  14 20 43.720707 +05 20 23.54109
 2018-Sep-14 07:09  m  14 20 43.760284 +05 20 23.73804
 2018-Sep-14 07:10  m  14 20 43.800053 +05 20 23.93501
 2018-Sep-14 07:11  m  14 20 43.840017 +05 20 24.13199
 2018-Sep-14 07:12  m  14 20 43.880174 +05 20 24.32898
 2018-Sep-14 07:13  m  14 20 43.920525 +05 20 24.52599
 2018-Sep-14 07:14  m  14 20 43.961069 +05 20 24.72301
 2018-Sep-14 07:15  m  14 20 44.001808 +05 20 24.92005
 2018-Sep-14 07:16  m  14 20 44.042740 +05 20 25.11710
 2018-Sep-14 07:17  m  14 20 44.083866 +05 20 25.31418
 2018-Sep-14 07:18  m  14 20 44.125186 +05 20 25.51127
 2018-Sep-14 07:19  m  14 20 44.166699 +05 20 25.70839
 2018-Sep-14 07:20  m  14 20 44.208406 +05 20 25.90553
 2018-Sep-14 07:21  m  14 20 44.250307 +05 20 26.10269
 2018-Sep-14 07:22  m  14 20 44.292402 +05 20 26.29988
 2018-Sep-14 07:23  m  14 20 44.334691 +05 20 26.49709
 2018-Sep-14 07:24  m  14 20 44.377173 +05 20 26.69433
 2018-Sep-14 07:25  m  14 20 44.419849 +05 20 26.89160
 2018-Sep-14 07:26  m  14 20 44.462718 +05 20 27.08890
 2018-Sep-14 07:27  m  14 20 44.505782 +05 20 27.28623
 2018-Sep-14 07:28  m  14 20 44.549038 +05 20 27.48359
 2018-Sep-14 07:29  m  14 20 44.592489 +05 20 27.68098
 2018-Sep-14 07:30  s  14 20 44.636133 +05 20 27.87841
 2018-Sep-14 07:31  m  14 20 44.679970 +05 20 28.07587
 2018-Sep-14 07:32  m  14 20 44.724001 +05 20 28.27337
 2018-Sep-14 07:33  m  14 20 44.768225 +05 20 28.47091
 2018-Sep-14 07:34  m  14 20 44.812642 +05 20 28.66848
 2018-Sep-14 07:35  m  14 20 44.857253 +05 20 28.86610
 2018-Sep-14 07:36  m  14 20 44.902057 +05 20 29.06375
 2018-Sep-14 07:37  m  14 20 44.947053 +05 20 29.26145
 2018-Sep-14 07:38  m  14 20 44.992243 +05 20 29.45919
 2018-Sep-14 07:39  m  14 20 45.037626 +05 20 29.65698
 2018-Sep-14 07:40  m  14 20 45.083202 +05 20 29.85481
 2018-Sep-14 07:41  m  14 20 45.128971 +05 20 30.05269
 2018-Sep-14 07:42  m  14 20 45.174932 +05 20 30.25061
 2018-Sep-14 07:43  m  14 20 45.221086 +05 20 30.44859
 2018-Sep-14 07:44  m  14 20 45.267432 +05 20 30.64661
 2018-Sep-14 07:45  m  14 20 45.313971 +05 20 30.84469
 2018-Sep-14 07:46  m  14 20 45.360702 +05 20 31.04282
 2018-Sep-14 07:47  m  14 20 45.407626 +05 20 31.24100
 2018-Sep-14 07:48  m  14 20 45.454741 +05 20 31.43924
 2018-Sep-14 07:49  m  14 20 45.502049 +05 20 31.63753
 2018-Sep-14 07:50  m  14 20 45.549548 +05 20 31.83589
 2018-Sep-14 07:51  m  14 20 45.597239 +05 20 32.03430
 2018-Sep-14 07:52  m  14 20 45.645122 +05 20 32.23276
 2018-Sep-14 07:53  m  14 20 45.693196 +05 20 32.43129
 2018-Sep-14 07:54  m  14 20 45.741462 +05 20 32.62989
 2018-Sep-14 07:55  m  14 20 45.789919 +05 20 32.82854
 2018-Sep-14 07:56  m  14 20 45.838567 +05 20 33.02726
 2018-Sep-14 07:57  m  14 20 45.887406 +05 20 33.22604
 2018-Sep-14 07:58     14 20 45.936436 +05 20 33.42489
 2018-Sep-14 07:59     14 20 45.985656 +05 20 33.62381
 2018-Sep-14 08:00     14 20 46.035067 +05 20 33.82280
 2018-Sep-14 08:01     14 20 46.084669 +05 20 34.02186
 2018-Sep-14 08:02     14 20 46.134460 +05 20 34.22098
 2018-Sep-14 08:03     14 20 46.184442 +05 20 34.42018
 2018-Sep-14 08:04     14 20 46.234613 +05 20 34.61946
 2018-Sep-14 08:05     14 20 46.284974 +05 20 34.81880
 2018-Sep-14 08:06     14 20 46.335525 +05 20 35.01823
 2018-Sep-14 08:07     14 20 46.386265 +05 20 35.21773
 2018-Sep-14 08:08     14 20 46.437194 +05 20 35.41730
 2018-Sep-14 08:09     14 20 46.488312 +05 20 35.61696
 2018-Sep-14 08:10     14 20 46.539619 +05 20 35.81670
 2018-Sep-14 08:11     14 20 46.591115 +05 20 36.01651
 2018-Sep-14 08:12     14 20 46.642799 +05 20 36.21641
 2018-Sep-14 08:13     14 20 46.694671 +05 20 36.41640
 2018-Sep-14 08:14     14 20 46.746731 +05 20 36.61647
 2018-Sep-14 08:15     14 20 46.798979 +05 20 36.81662
 2018-Sep-14 08:16     14 20 46.851414 +05 20 37.01686
 2018-Sep-14 08:17     14 20 46.904037 +05 20 37.21719
 2018-Sep-14 08:18     14 20 46.956847 +05 20 37.41761
 2018-Sep-14 08:19     14 20 47.009844 +05 20 37.61812
 2018-Sep-14 08:20     14 20 47.063028 +05 20 37.81872
 2018-Sep-14 08:21     14 20 47.116398 +05 20 38.01941
 2018-Sep-14 08:22     14 20 47.169954 +05 20 38.22020
 2018-Sep-14 08:23     14 20 47.223696 +05 20 38.42108
 2018-Sep-14 08:24     14 20 47.277624 +05 20 38.62206
 2018-Sep-14 08:25     14 20 47.331738 +05 20 38.82313
 2018-Sep-14 08:26     14 20 47.386037 +05 20 39.02430
 2018-Sep-14 08:27     14 20 47.440521 +05 20 39.22557
 2018-Sep-14 08:28     14 20 47.495189 +05 20 39.42695
 2018-Sep-14 08:29     14 20 47.550042 +05 20 39.62842
 2018-Sep-14 08:30     14 20 47.605080 +05 20 39.83000
 2018-Sep-14 08:31     14 20 47.660301 +05 20 40.03168
 2018-Sep-14 08:32     14 20 47.715706 +05 20 40.23346
 2018-Sep-14 08:33     14 20 47.771295 +05 20 40.43535
 2018-Sep-14 08:34     14 20 47.827066 +05 20 40.63735
 2018-Sep-14 08:35     14 20 47.883021 +05 20 40.83946
 2018-Sep-14 08:36     14 20 47.939158 +05 20 41.04167
 2018-Sep-14 08:37     14 20 47.995477 +05 20 41.24400
 2018-Sep-14 08:38     14 20 48.051979 +05 20 41.44644
 2018-Sep-14 08:39     14 20 48.108662 +05 20 41.64899
 2018-Sep-14 08:40     14 20 48.165527 +05 20 41.85165
